STARLINK-31182          
1 59159U 24044H   26068.45386158 -.00003358  00000+0 -11253-3 0  9990
2 59159  42.9980 108.0029 0000388 227.2517 132.8302 15.27593573113560
TRANSPORTER-12 OBJECT BT
1 62674U 25009BT  26068.71416991  .00013824  00000+0  51029-3 0  9998
2 62674  97.4094 151.5992 0003682 313.5044  46.5889 15.27872239121360
